0 IRIDIUM 36
1 24967U 97056C   24028.92396454  .00000705  00000-0  23340-3 0  9990
2 24967  86.3961  25.1408 0002135  92.9856 267.1585 14.36602582379654
0 IRIDIUM 39
1 25042U 97069D   24028.63949585  .00000944  00000-0  25016-3 0  9993
2 25042  86.3878  67.6942 0018031 186.4387 173.6587 14.47652673375781
0 IRIDIUM 38
1 25043U 97069E   24028.69693552  .00000539  00000-0  17505-3 0  9994
2 25043  86.3928  85.7057 0002230  35.3920 324.7425 14.37071503373330
0 IRIDIUM 42
1 25077U 97077A   24028.65353874  .00000645  00000-0  21807-3 0  9994
2 25077  86.3938  91.2805 0001857  74.0417 286.0984 14.35368271368654
0 IRIDIUM 44
1 25078U 97077B   24029.12648258  .00000638  00000-0  19977-3 0  9998
2 25078  86.3917  74.3510 0000902 148.4300 211.6952 14.39181827371066
0 IRIDIUM 45
1 25104U 97082A   24028.74855204  .00014541  00000-0  88431-3 0  9991
2 25104  86.3751 287.9681 0173152  29.5919 331.4973 14.98557794375799
0 IRIDIUM 24
1 25105U 97082B   24028.83149073  .00000780  00000-0  23665-3 0  9990
2 25105  86.3916 294.3150 0009992 314.5441  45.4942 14.40959241370415
0 IRIDIUM 51
1 25262U 98018A   24028.82500966  .00021467  00000-0  11145-2 0  9999
2 25262  86.3951 298.1609 0155627 339.7621  19.7485 15.06007336370255
